OBJECT_NAME,OBJECT_ID,EPOCH,MEAN_MOTION,ECCENTRICITY,INCLINATION,RA_OF_ASC_NODE,ARG_OF_PERICENTER,MEAN_ANOMALY,EPHEMERIS_TYPE,CLASSIFICATION_TYPE,NORAD_CAT_ID,ELEMENT_SET_NO,REV_AT_EPOCH,BSTAR,MEAN_MOTION_DOT,MEAN_MOTION_DDOT
LEMUR-1,2014-033AL,2026-06-11T03:55:01.228224,14.85222289,.00497494,97.7866,312.1029,97.8711,262.8156,0,U,40044,999,64457,.23503843E-3,.2005E-4,0
LEMUR-2-GREENBERG,2017-042N,2026-06-10T17:57:22.000320,15.31129963,.00091491,97.3819,342.4043,36.3346,323.8515,0,U,42837,999,48740,.48598029E-3,.14567E-3,0
LEMUR-2-ANDIS,2017-042P,2026-06-09T17:58:15.142368,15.34551135,.00087713,97.3682,341.5686,38.8690,321.3182,0,U,42838,999,48731,.63562904E-3,.21256E-3,0
LEMUR-2-MONSON,2017-042Q,2026-06-11T00:07:12.396576,15.27848617,.00068284,97.4076,342.6414,27.7700,332.3903,0,U,42839,999,48722,.46797081E-3,.12667E-3,0
LEMUR-2-FURIAUS,2017-042R,2026-06-10T09:50:59.191584,15.30030493,.00085013,97.3771,340.0388,89.8327,270.3888,0,U,42840,999,48717,.5665163E-3,.16426E-3,0
LEMUR-2-PETERG,2017-042S,2026-06-11T05:29:43.809792,15.33656035,.00037234,97.3987,347.2515,20.0355,340.1033,0,U,42841,999,48752,.53533691E-3,.17364E-3,0
LEMUR-2-DEMBITZ,2017-042T,2026-06-11T00:27:29.179008,15.30107084,.00072743,97.3820,343.6620,49.2144,310.9727,0,U,42842,999,48740,.48319505E-3,.14024E-3,0
LEMUR-2-ZACHARY,2017-042W,2026-06-11T06:01:02.558784,15.49749100,.00033231,97.3606,353.7641,55.3333,304.8231,0,U,42845,999,48828,.69805331E-3,.38823E-3,0
LEMUR-2-AMANDA-SVANTE,2021-034B,2026-06-11T03:51:56.090304,15.33932852,.00015466,97.5765,240.2895,230.7421,129.3685,0,U,48269,999,28013,.78927463E-3,.25885E-3,0
LEMUR-2-SPECIAL-K,2021-034F,2026-06-11T04:44:52.583712,15.62774367,.00036027,97.5656,248.6294,231.2158,128.8778,0,U,48273,999,28075,.13059653E-2,.118767E-2,0
LEMUR-2-EMBRIONOVIS,2023-084AQ,2026-06-11T06:41:57.063552,15.37400304,.00080969,97.6277,306.2531,343.5923,16.5057,0,U,56970,999,16677,.30293494E-3,.11035E-3,0
LEMUR-2-DEVERILL-M-T,2023-100F,2026-06-11T01:27:19.995840,15.39450579,.00068994,99.4481,199.0510,69.1156,291.0821,0,U,57391,999,16030,.63343917E-3,.24781E-3,0
LEMUR-2-BASS,2023-174D,2026-06-11T04:17:54.822336,15.42893119,.0007295,97.3847,246.8085,181.4976,178.6251,0,U,58259,999,14443,.33827201E-3,.1479E-3,0
LEMUR-2-JK0903EM1407,2023-174CJ,2026-06-11T05:02:44.671200,15.51370914,.00059504,97.3916,252.5139,136.2348,223.9377,0,U,58336,999,14480,.38952096E-3,.22865E-3,0
LEMUR-2-MJR092620,2023-174CN,2026-06-11T04:46:59.462112,15.44653453,.00071141,97.3973,252.1191,135.0115,225.1711,0,U,58340,999,14472,.35872032E-3,.16653E-3,0
LEMUR-2-NIMBUS2000,2024-022A,2026-06-11T02:24:44.342208,15.39802396,.00101064,97.4121,12.0267,134.5329,225.6745,0,U,58899,999,13133,.39307867E-3,.15536E-3,0
LEMUR-2-VALHALLA,2024-022B,2026-06-11T02:17:28.798080,15.39487943,.00106683,97.4118,12.0157,130.7678,229.4495,0,U,58900,999,13133,.37482462E-3,.1466E-3,0
LEMUR-2-OBA-NI-JESU,2024-022D,2026-06-11T02:44:47.525280,16.18306341,.00058661,97.3665,27.0135,221.6403,138.4440,0,U,58902,999,13235,.12385863E-2,.2051285E-1,.2412449E-5
LEMUR-2-CAEL,2024-022E,2026-06-11T02:39:00.182592,15.40777192,.00092315,97.4102,12.9560,115.4631,244.7571,0,U,58903,999,13140,.39247376E-3,.16015E-3,0
LEMUR-2-JOHNNYTRUONG,2024-043BA,2026-06-11T01:22:26.142528,15.60009338,.00045935,97.5366,313.3837,194.4972,165.6153,0,U,59146,999,12708,.42363531E-3,.3422E-3,0
LEMUR-2-TOMATOKECHUP,2024-149D,2026-06-11T04:17:37.353984,15.35903465,.00008465,97.3799,244.2108,190.0298,170.0929,0,U,60471,999,10124,.27392444E-3,.9493E-4,0
LEMUR-2-STELLA,2024-149BT,2026-06-11T04:34:48.496512,15.11675589,.00016614,97.6733,244.6199,99.6109,260.5309,0,U,60533,999,9959,.54896755E-3,.928E-4,0
LEMUR-2-MARHISYAM,2024-149BW,2026-06-11T04:03:20.993472,15.11136823,.00031919,97.6882,245.0409,128.1580,231.9938,0,U,60536,999,9957,.56896676E-3,.9479E-4,0
LEMUR-2-AHMED-ASRAR,2024-149DN,2026-06-11T05:00:47.790144,15.12575555,.0002335,97.7002,247.1509,57.7435,302.4021,0,U,60576,999,9966,.51667459E-3,.8952E-4,0
LEMUR-2-LLOYD,2024-149DP,2026-06-11T04:59:00.298176,15.09122593,.00047034,97.6751,243.3339,152.9813,207.1661,0,U,60577,999,9949,.51178651E-3,.8059E-4,0
LEMUR-2-SQUIRRELCOMM,2024-149DQ,2026-06-11T05:07:38.296416,15.07084976,.00070033,97.6716,243.1440,78.9236,281.2779,0,U,60578,999,9950,.31771948E-3,.4708E-4,0
LEMUR-2-SIERRINI,2024-149DR,2026-06-11T04:35:24.787968,15.10815950,.00053543,97.6835,244.7572,183.8711,176.2478,0,U,60579,999,9955,.5460263E-3,.9015E-4,0
LEMUR-2-WILSON,2025-009CP,2026-06-11T04:56:09.066336,14.95138222,.00043648,97.7023,240.7753,69.6897,290.4793,0,U,62694,999,7646,.15125275E-3,.1603E-4,0
LEMUR-2-STAR-FOX,2025-009CR,2026-06-11T03:58:16.383360,15.02413354,.00032023,97.6952,243.8175,127.1650,232.9868,0,U,62696,999,7665,.507229E-3,.6662E-4,0
